{
  "type": "FeatureCollection",
  "features": [
    {
      "type": "Feature",
      "properties": {
        "norad_id": 39773,
        "name": "EUTELSAT 3B",
        "group": "eutelsat",
        "lat": 0.016210450225669477,
        "lon": 162.01573816692633,
        "alt_km": 35778.27718310275,
        "timestamp": "2025-12-04T05:42:43.049202+00:00",
        "meta_object_name": "EUTELSAT 3B",
        "meta_object_id": "2014-030A",
        "meta_epoch": "2025-12-03T18:42:38.603808",
        "meta_mean_motion": 1.00270877,
        "meta_eccentricity": 0.00047809,
        "meta_inclination": 0.0635,
        "meta_ra_of_asc_node": 3.048,
        "meta_arg_of_pericenter": 225.3781,
        "meta_mean_anomaly": 128.1935,
        "meta_ephemeris_type": 0,
        "meta_classification_type": "U",
        "meta_norad_cat_id": 39773,
        "meta_element_set_no": 999,
        "meta_rev_at_epoch": 4210,
        "meta_bstar": 0,
        "meta_mean_motion_dot": 3.7e-07,
        "meta_mean_motion_ddot": 0,
        "tle_line1": "1 39773U 14030A   25337.77961347  .00000037  00000+0  00000+0 0  9999",
        "tle_line2": "2 39773   0.0635   3.0480 0004780 225.3781 128.1935  1.00270877 42105"
      },
      "geometry": {
        "type": "Point",
        "coordinates": [
          162.01573816692633,
          0.016210450225669477
        ]
      }
    },
    {
      "type": "Feature",
      "properties": {
        "norad_id": 40425,
        "name": "EUTELSAT 115 WEST B",
        "group": "eutelsat",
        "lat": -0.011479890301198269,
        "lon": 44.076941589429644,
        "alt_km": 35784.9851520974,
        "timestamp": "2025-12-04T05:42:43.049214+00:00",
        "meta_object_name": "EUTELSAT 115 WEST B",
        "meta_object_id": "2015-010B",
        "meta_epoch": "2025-12-03T16:37:59.708352",
        "meta_mean_motion": 1.00270514,
        "meta_eccentricity": 4.787e-05,
        "meta_inclination": 0.0142,
        "meta_ra_of_asc_node": 147.7315,
        "meta_arg_of_pericenter": 301.2332,
        "meta_mean_anomaly": 118.4232,
        "meta_ephemeris_type": 0,
        "meta_classification_type": "U",
        "meta_norad_cat_id": 40425,
        "meta_element_set_no": 999,
        "meta_rev_at_epoch": 3943,
        "meta_bstar": 0,
        "meta_mean_motion_dot": -7e-08,
        "meta_mean_motion_ddot": 0,
        "tle_line1": "1 40425U 15010B   25337.69305218 -.00000007  00000+0  00000+0 0  9992",
        "tle_line2": "2 40425   0.0142 147.7315 0000478 301.2332 118.4232  1.00270514 39435"
      },
      "geometry": {
        "type": "Point",
        "coordinates": [
          44.076941589429644,
          -0.011479890301198269
        ]
      }
    },
    {
      "type": "Feature",
      "properties": {
        "norad_id": 40875,
        "name": "EUTELSAT 8 WEST B",
        "group": "eutelsat",
        "lat": 0.01695475891682708,
        "lon": 150.93329150859063,
        "alt_km": 35790.37747616883,
        "timestamp": "2025-12-04T05:42:43.049243+00:00",
        "meta_object_name": "EUTELSAT 8 WEST B",
        "meta_object_id": "2015-039B",
        "meta_epoch": "2025-12-03T18:42:38.603808",
        "meta_mean_motion": 1.00271603,
        "meta_eccentricity": 0.00041368,
        "meta_inclination": 0.0656,
        "meta_ra_of_asc_node": 348.0497,
        "meta_arg_of_pericenter": 266.9751,
        "meta_mean_anomaly": 90.5072,
        "meta_ephemeris_type": 0,
        "meta_classification_type": "U",
        "meta_norad_cat_id": 40875,
        "meta_element_set_no": 999,
        "meta_rev_at_epoch": 3769,
        "meta_bstar": 0,
        "meta_mean_motion_dot": -4.8e-07,
        "meta_mean_motion_ddot": 0,
        "tle_line1": "1 40875U 15039B   25337.77961347 -.00000048  00000+0  00000+0 0  9997",
        "tle_line2": "2 40875   0.0656 348.0497 0004136 266.9751  90.5072  1.00271603 37696"
      },
      "geometry": {
        "type": "Point",
        "coordinates": [
          150.93329150859063,
          0.01695475891682708
        ]
      }
    },
    {
      "type": "Feature",
      "properties": {
        "norad_id": 41310,
        "name": "EUTELSAT 9B",
        "group": "eutelsat",
        "lat": 0.04907858745053074,
        "lon": 167.90190174830494,
        "alt_km": 35788.68801603197,
        "timestamp": "2025-12-04T05:42:43.049255+00:00",
        "meta_object_name": "EUTELSAT 9B",
        "meta_object_id": "2016-005A",
        "meta_epoch": "2025-12-03T18:20:38.512032",
        "meta_mean_motion": 1.00271404,
        "meta_eccentricity": 0.00049351,
        "meta_inclination": 0.0667,
        "meta_ra_of_asc_node": 75.1565,
        "meta_arg_of_pericenter": 189.8997,
        "meta_mean_anomaly": 91.9391,
        "meta_ephemeris_type": 0,
        "meta_classification_type": "U",
        "meta_norad_cat_id": 41310,
        "meta_element_set_no": 999,
        "meta_rev_at_epoch": 3615,
        "meta_bstar": 0,
        "meta_mean_motion_dot": 7.9e-07,
        "meta_mean_motion_ddot": 0,
        "tle_line1": "1 41310U 16005A   25337.76433463  .00000079  00000+0  00000+0 0  9991",
        "tle_line2": "2 41310   0.0667  75.1565 0004935 189.8997  91.9391  1.00271404 36157"
      },
      "geometry": {
        "type": "Point",
        "coordinates": [
          167.90190174830494,
          0.04907858745053074
        ]
      }
    },
    {
      "type": "Feature",
      "properties": {
        "norad_id": 41382,
        "name": "EUTELSAT 65 WEST A",
        "group": "eutelsat",
        "lat": 0.06714365790462778,
        "lon": 93.76208095665419,
        "alt_km": 35797.8909237303,
        "timestamp": "2025-12-04T05:42:43.049267+00:00",
        "meta_object_name": "EUTELSAT 65 WEST A",
        "meta_object_id": "2016-014A",
        "meta_epoch": "2025-12-03T10:01:12.190080",
        "meta_mean_motion": 1.00270652,
        "meta_eccentricity": 0.00027799,
        "meta_inclination": 0.0504,
        "meta_ra_of_asc_node": 344.5568,
        "meta_arg_of_pericenter": 274.9702,
        "meta_mean_anomaly": 258.0819,
        "meta_ephemeris_type": 0,
        "meta_classification_type": "U",
        "meta_norad_cat_id": 41382,
        "meta_element_set_no": 999,
        "meta_rev_at_epoch": 3557,
        "meta_bstar": 0,
        "meta_mean_motion_dot": -2.58e-06,
        "meta_mean_motion_ddot": 0,
        "tle_line1": "1 41382U 16014A   25337.41750220 -.00000258  00000+0  00000+0 0  9995",
        "tle_line2": "2 41382   0.0504 344.5568 0002779 274.9702 258.0819  1.00270652 35576"
      },
      "geometry": {
        "type": "Point",
        "coordinates": [
          93.76208095665419,
          0.06714365790462778
        ]
      }
    },
    {
      "type": "Feature",
      "properties": {
        "norad_id": 41589,
        "name": "EUTELSAT 117 WEST B",
        "group": "eutelsat",
        "lat": -0.01831210792330421,
        "lon": 41.962999133485994,
        "alt_km": 35786.891124714995,
        "timestamp": "2025-12-04T05:42:43.049279+00:00",
        "meta_object_name": "EUTELSAT 117 WEST B",
        "meta_object_id": "2016-038B",
        "meta_epoch": "2025-12-03T16:37:22.267776",
        "meta_mean_motion": 1.002675,
        "meta_eccentricity": 2.71e-05,
        "meta_inclination": 0.0072,
        "meta_ra_of_asc_node": 146.0291,
        "meta_arg_of_pericenter": 327.1169,
        "meta_mean_anomaly": 91.9765,
        "meta_ephemeris_type": 0,
        "meta_classification_type": "U",
        "meta_norad_cat_id": 41589,
        "meta_element_set_no": 999,
        "meta_rev_at_epoch": 3470,
        "meta_bstar": 0,
        "meta_mean_motion_dot": 7e-08,
        "meta_mean_motion_ddot": 0,
        "tle_line1": "1 41589U 16038B   25337.69261884  .00000007  00000+0  00000+0 0  9994",
        "tle_line2": "2 41589   0.0072 146.0291 0000271 327.1169  91.9765  1.00267500 34702"
      },
      "geometry": {
        "type": "Point",
        "coordinates": [
          41.962999133485994,
          -0.01831210792330421
        ]
      }
    },
    {
      "type": "Feature",
      "properties": {
        "norad_id": 42741,
        "name": "EUTELSAT 172B",
        "group": "eutelsat",
        "lat": 0.00019931311845879955,
        "lon": -29.027673167041502,
        "alt_km": 35786.36046077823,
        "timestamp": "2025-12-04T05:42:43.049291+00:00",
        "meta_object_name": "EUTELSAT 172B",
        "meta_object_id": "2017-029B",
        "meta_epoch": "2025-12-03T17:18:38.540160",
        "meta_mean_motion": 1.00271292,
        "meta_eccentricity": 1.907e-05,
        "meta_inclination": 0.0029,
        "meta_ra_of_asc_node": 53.9145,
        "meta_arg_of_pericenter": 175.2679,
        "meta_mean_anomaly": 275.2829,
        "meta_ephemeris_type": 0,
        "meta_classification_type": "U",
        "meta_norad_cat_id": 42741,
        "meta_element_set_no": 999,
        "meta_rev_at_epoch": 3177,
        "meta_bstar": 0,
        "meta_mean_motion_dot": 1.2e-07,
        "meta_mean_motion_ddot": 0,
        "tle_line1": "1 42741U 17029B   25337.72127940  .00000012  00000+0  00000+0 0  9990",
        "tle_line2": "2 42741   0.0029  53.9145 0000190 175.2679 275.2829  1.00271292 31772"
      },
      "geometry": {
        "type": "Point",
        "coordinates": [
          -29.027673167041502,
          0.00019931311845879955
        ]
      }
    }
  ]
}